INTELSAT 23 (IS-23)     
1 38867U 12057A   26204.38792269 -.00000280  00000+0  00000+0 0  9996
2 38867   0.0223 303.0734 0000266 240.0093 204.6726  1.00269275 50311
BEIDOU-2 G6             
1 38953U 12059A   26204.62894659 -.00000175  00000+0  00000+0 0  9990
2 38953   4.5115  73.1264 0008927 329.8199 208.8701  1.00273149 50273
LUCH-5B                 
1 38977U 12061A   26204.39520272 -.00000141  00000+0  00000+0 0  9993
2 38977  10.5601  49.5175 0003878 141.8135 235.7589  1.00270872 49974
YAMAL 300K              
1 38978U 12061B   26203.57930361  .00000075  00000+0  00000+0 0  9992
2 38978   0.0092 114.3785 0000158  10.6714 206.7639  1.00270995 49986
STAR ONE C3             
1 38991U 12062A   26204.52617140 -.00000244  00000+0  00000+0 0  9990
2 38991   0.0177  52.3614 0002594  73.6373 289.6838  1.00269775 50126
EUTELSAT 21B            
1 38992U 12062B   26204.33148178  .00000135  00000+0  00000+0 0  9998
2 38992   0.0663 351.9929 0003239 139.0596 310.9389  1.00274793 50197
ECHOSTAR 16             
1 39008U 12065A   26204.47380127 -.00000277  00000+0  00000+0 0  9995
2 39008   0.0170  63.5796 0002079  56.1649 290.5311  1.00270899 50007
ZHONGXING-12            
1 39017U 12067A   26203.84553722 -.00000202  00000+0  00000+0 0  9998
2 39017   0.0204 121.3900 0002920 355.9520 215.1228  1.00270979 49869
EUTELSAT 70B            
1 39020U 12069A   26204.55497161 -.00000038  00000+0  00000+0 0  9994
2 39020   0.0630 348.8119 0003415 133.2304  89.5319  1.00270702 49870
YAMAL 402               
1 39022U 12070A   26203.69645782  .00000088  00000+0  00000+0 0  9990
2 39022   1.3532  83.7147 0003855  31.0616 131.2827  1.00273493 49758
SKYNET 5D               
1 39034U 12075A   26204.55147818  .00000103  00000+0  00000+0 0  9999
2 39034   0.0709 349.5718 0003825 142.9487  60.0746  1.00276501 49522
MEXSAT 3                
1 39035U 12075B   26204.51828469  .00000000  00000+0  00000+0 0  9990
2 39035   0.0240  60.7716 0000954  63.6489 248.6426  1.00276058  7412
TDRS 11                 
1 39070U 13004A   26204.45654606  .00000081  00000+0  00000+0 0  9994
2 39070   3.5739  31.8171 0005131  30.7492 228.7126  1.00266079 47059
AMAZONAS 3              
1 39078U 13006A   26204.47436258 -.00000277  00000+0  00000+0 0  9995
2 39078   0.0640 237.5368 0003693 275.2278 258.1910  1.00270215 45279
AZERSPACE 1             
1 39079U 13006B   26204.55017818  .00000138  00000+0  00000+0 0  9997
2 39079   0.0344 269.1225 0002270 239.2041  37.0009  1.00273107 49171
SBIRS GEO-2 (USA 241)   
1 39120U 13011A   26204.53111142 -.00000285  00000+0  00000+0 0  9997
2 39120   4.5655  52.5001 0001844  67.8629 322.2994  1.00271321 48909
EUTELSAT 117 WEST A     
1 39122U 13012A   26204.51785135 -.00000008  00000+0  00000+0 0  9990
2 39122   0.0280 304.5633 0003006 176.0735 250.2261  1.00272325 48799
ANIK G1                 
1 39127U 13014A   26204.51975803 -.00000069  00000+0  00000+0 0  9997
2 39127   0.0638 258.0539 0002151 229.3521 253.6572  1.00272085 48610
ZHONGXING-11            
1 39157U 13020A   26204.56043162 -.00000286  00000+0  00000+0 0  9997
2 39157   0.0363 278.3519 0002434 164.3864 158.2180  1.00272655 48262
EUTELSAT 7B             
1 39163U 13022A   26204.54229148  .00000053  00000+0  00000+0 0  9995
2 39163   0.0650 355.2140 0003173  58.2700  89.9969  1.00272553 48312
WGS F5 (USA 243)        
1 39168U 13024A   26204.53059142  .00000000  00000+0  00000+0 0  9998
2 39168   0.0234  61.1667 0000315  74.9413 303.6788  1.00269796 47536
SES-6                   
1 39172U 13026A   26204.39043603 -.00000256  00000+0  00000+0 0  9998
2 39172   0.0174  29.8354 0002791  73.0020 298.3449  1.00271106 48085
IRNSS-1A                
1 39199U 13034A   26203.69637116  .00000051  00000+0  00000+0 0  9998
2 39199  35.7966  63.3613 0018791 179.4799   3.3059  1.00271851 47728
MUOS-2                  
1 39206U 13036A   26204.51294631 -.00000011  00000+0  00000+0 0  9999
2 39206   5.0656  45.5553 0053391 176.4514  75.8863  1.00273796 47553
ALPHASAT                
1 39215U 13038A   26204.54593149  .00000137  00000+0  00000+0 0  9998
2 39215   2.9999   1.0892 0002637 138.1361  23.4564  1.00271226 44385
INSAT-3D                
1 39216U 13038B   26204.54211512 -.00000336  00000+0  00000+0 0  9992
2 39216   2.0172  82.0810 0001161  44.1234 139.7387  1.00272591 47445
WGS F6 (USA 244)        
1 39222U 13041A   26204.37430021  .00000094  00000+0  00000+0 0  9992
2 39222   0.0164  62.5811 0000479  32.8453 205.2321  1.00272726 46427
ES'HAIL 1               
1 39233U 13044A   26204.54610483  .00000148  00000+0  00000+0 0  9998
2 39233   0.0478   9.4772 0002484 104.2082  49.6728  1.00272896 46994
GSAT-7                  
1 39234U 13044B   26204.55566494 -.00000072  00000+0  00000+0 0  9999
2 39234   0.1715  89.3161 0002951 172.2277 313.7427  1.00272654 45621
AMOS-4                  
1 39237U 13045A   26204.55393160  .00000012  00000+0  00000+0 0  9994
2 39237   0.0070  48.8871 0001964  49.6232 107.1803  1.00272254 47324
AEHF-3 (USA 246)        
1 39256U 13050A   26204.46144273  .00000029  00000+0  00000+0 0  9998
2 39256   5.3803  66.8458 0088826 187.7395  88.4575  1.00273091 46016
ASTRA 2E                
1 39285U 13056A   26204.54662483  .00000155  00000+0  00000+0 0  9993
2 39285   0.0644 328.0570 0002526 152.6059  45.8560  1.00273017 46785
