OBJECT_NAME,OBJECT_ID,EPOCH,MEAN_MOTION,ECCENTRICITY,INCLINATION,RA_OF_ASC_NODE,ARG_OF_PERICENTER,MEAN_ANOMALY,EPHEMERIS_TYPE,CLASSIFICATION_TYPE,NORAD_CAT_ID,ELEMENT_SET_NO,REV_AT_EPOCH,BSTAR,MEAN_MOTION_DOT,MEAN_MOTION_DDOT
INTELSAT 23 (IS-23),2012-057A,2026-07-23T09:18:36.520416,1.00269275,.00002667,0.0223,303.0734,240.0093,204.6726,0,U,38867,999,5031,0,-.28E-5,0
BEIDOU-2 G6,2012-059A,2026-07-23T15:05:40.985376,1.00273149,.00089275,4.5115,73.1264,329.8199,208.8701,0,U,38953,999,5027,0,-.175E-5,0
LUCH-5B,2012-061A,2026-07-23T09:29:05.515008,1.00270872,.00038788,10.5601,49.5175,141.8135,235.7589,0,U,38977,999,4997,0,-.141E-5,0
YAMAL 300K,2012-061B,2026-07-22T13:54:11.831904,1.00270995,.00001585,0.0092,114.3785,10.6714,206.7639,0,U,38978,999,4998,0,.75E-6,0
STAR ONE C3,2012-062A,2026-07-23T12:37:41.208960,1.00269775,.00025941,0.0177,52.3614,73.6373,289.6838,0,U,38991,999,5012,0,-.244E-5,0
EUTELSAT 21B,2012-062B,2026-07-23T07:57:20.025792,1.00274793,.00032395,0.0663,351.9929,139.0596,310.9389,0,U,38992,999,5019,0,.135E-5,0
ECHOSTAR 16,2012-065A,2026-07-23T11:22:16.429728,1.00270899,.00020791,0.0170,63.5796,56.1649,290.5311,0,U,39008,999,5000,0,-.277E-5,0
ZHONGXING-12,2012-067A,2026-07-22T20:17:34.415808,1.00270979,.000292,0.0204,121.3900,355.9520,215.1228,0,U,39017,999,4986,0,-.202E-5,0
EUTELSAT 70B,2012-069A,2026-07-23T13:19:09.547104,1.00270702,.00034151,0.0630,348.8119,133.2304,89.5319,0,U,39020,999,4987,0,-.38E-6,0
YAMAL 402,2012-070A,2026-07-22T16:42:53.955648,1.00273493,.00038558,1.3532,83.7147,31.0616,131.2827,0,U,39022,999,4975,0,.88E-6,0
SKYNET 5D,2012-075A,2026-07-23T13:14:07.714752,1.00276501,.00038254,0.0709,349.5718,142.9487,60.0746,0,U,39034,999,4952,0,.103E-5,0
MEXSAT 3,2012-075B,2026-07-23T12:26:19.797216,1.00276058,.00009547,0.0240,60.7716,63.6489,248.6426,0,U,39035,999,741,0,0,0
TDRS 11,2013-004A,2026-07-23T10:57:25.579584,1.00266079,.00051318,3.5739,31.8171,30.7492,228.7126,0,U,39070,999,4705,0,.81E-6,0
AMAZONAS 3,2013-006A,2026-07-23T11:23:04.926912,1.00270215,.00036939,0.0640,237.5368,275.2278,258.1910,0,U,39078,999,4527,0,-.277E-5,0
AZERSPACE 1,2013-006B,2026-07-23T13:12:15.394752,1.00273107,.00022704,0.0344,269.1225,239.2041,37.0009,0,U,39079,999,4917,0,.138E-5,0
SBIRS GEO-2 (USA 241),2013-011A,2026-07-23T12:44:48.026688,1.00271321,.00018449,4.5655,52.5001,67.8629,322.2994,0,U,39120,999,4890,0,-.285E-5,0
EUTELSAT 117 WEST A,2013-012A,2026-07-23T12:25:42.356640,1.00272325,.00030062,0.0280,304.5633,176.0735,250.2261,0,U,39122,999,4879,0,-.8E-7,0
ANIK G1,2013-014A,2026-07-23T12:28:27.093792,1.00272085,.00021518,0.0638,258.0539,229.3521,253.6572,0,U,39127,999,4861,0,-.69E-6,0
ZHONGXING-11,2013-020A,2026-07-23T13:27:01.291968,1.00272655,.00024349,0.0363,278.3519,164.3864,158.2180,0,U,39157,999,4826,0,-.286E-5,0
EUTELSAT 7B,2013-022A,2026-07-23T13:00:53.983872,1.00272553,.00031734,0.0650,355.2140,58.2700,89.9969,0,U,39163,999,4831,0,.53E-6,0
WGS F5 (USA 243),2013-024A,2026-07-23T12:44:03.098688,1.00269796,.00003156,0.0234,61.1667,74.9413,303.6788,0,U,39168,999,4753,0,0,0
SES-6,2013-026A,2026-07-23T09:22:13.672992,1.00271106,.00027912,0.0174,29.8354,73.0020,298.3449,0,U,39172,999,4808,0,-.256E-5,0
IRNSS-1A,2013-034A,2026-07-22T16:42:46.468224,1.00271851,.00187917,35.7966,63.3613,179.4799,3.3059,0,U,39199,999,4772,0,.51E-6,0
MUOS-2,2013-036A,2026-07-23T12:18:38.561184,1.00273796,.00533911,5.0656,45.5553,176.4514,75.8863,0,U,39206,999,4755,0,-.11E-6,0
ALPHASAT,2013-038A,2026-07-23T13:06:08.480736,1.00271226,.00026372,2.9999,1.0892,138.1361,23.4564,0,U,39215,999,4438,0,.137E-5,0
INSAT-3D,2013-038B,2026-07-23T13:00:38.746368,1.00272591,.00011614,2.0172,82.0810,44.1234,139.7387,0,U,39216,999,4744,0,-.336E-5,0
WGS F6 (USA 244),2013-041A,2026-07-23T08:58:59.538144,1.00272726,.00004796,0.0164,62.5811,32.8453,205.2321,0,U,39222,999,4642,0,.94E-6,0
ES'HAIL 1,2013-044A,2026-07-23T13:06:23.457312,1.00272896,.00024847,0.0478,9.4772,104.2082,49.6728,0,U,39233,999,4699,0,.148E-5,0
GSAT-7,2013-044B,2026-07-23T13:20:09.450816,1.00272654,.00029516,0.1715,89.3161,172.2277,313.7427,0,U,39234,999,4562,0,-.72E-6,0
AMOS-4,2013-045A,2026-07-23T13:17:39.690240,1.00272254,.00019648,0.0070,48.8871,49.6232,107.1803,0,U,39237,999,4732,0,.12E-6,0
AEHF-3 (USA 246),2013-050A,2026-07-23T11:04:28.651872,1.00273091,.00888261,5.3803,66.8458,187.7395,88.4575,0,U,39256,999,4601,0,.29E-6,0
ASTRA 2E,2013-056A,2026-07-23T13:07:08.385312,1.00273017,.00025268,0.0644,328.0570,152.6059,45.8560,0,U,39285,999,4678,0,.155E-5,0
